{"type": "FeatureCollection", "features": [{"type": "Feature", "properties": {"norad_id": 66380, "name": "STARLINK-35139", "group": "last-30-days", "lat": -4.778758949230345, "lon": -85.03006597446328, "alt_km": 448.49030929736364, "timestamp": "2025-12-09T18:55:16.020598+00:00", "meta": {"OBJECT_NAME": "STARLINK-35139", "OBJECT_ID": "2025-257A", "EPOCH": "2025-12-09T12:42:54.821088", "MEAN_MOTION": 15.3961067, "ECCENTRICITY": 7.358e-05, "INCLINATION": 53.1588, "RA_OF_ASC_NODE": 279.7823, "ARG_OF_PERICENTER": 64.5595, "MEAN_ANOMALY": 295.5486, "EPHEMERIS_TYPE": 0, "CLASSIFICATION_TYPE": "U", "NORAD_CAT_ID": 66380, "ELEMENT_SET_NO": 999, "REV_AT_EPOCH": 581, "BSTAR": 0.0018317026, "MEAN_MOTION_DOT": 0.00073554, "MEAN_MOTION_DDOT": 0}, "tle": {"line1": "1 66380U 25257A   25343.52980117  .00073554  00000+0  18317-2 0  9999", "line2": "2 66380  53.1588 279.7823 0000735  64.5595 295.5486 15.39610670  5813"}}, "geometry": {"type": "Point", "coordinates": [-85.03006597446328, -4.778758949230345]}}, {"type": "Feature", "properties": {"norad_id": 66381, "name": "STARLINK-35158", "group": "last-30-days", "lat": -3.162724001632205, "lon": -83.81506514665656, "alt_km": 448.0008264351427, "timestamp": "2025-12-09T18:55:16.020652+00:00", "meta": {"OBJECT_NAME": "STARLINK-35158", "OBJECT_ID": "2025-257B", "EPOCH": "2025-12-09T12:42:24.798816", "MEAN_MOTION": 15.39713572, "ECCENTRICITY": 0.00015452, "INCLINATION": 53.1589, "RA_OF_ASC_NODE": 279.7799, "ARG_OF_PERICENTER": 77.0925, "MEAN_ANOMALY": 283.0252, "EPHEMERIS_TYPE": 0, "CLASSIFICATION_TYPE": "U", "NORAD_CAT_ID": 66381, "ELEMENT_SET_NO": 999, "REV_AT_EPOCH": 587, "BSTAR": 0.001765011, "MEAN_MOTION_DOT": 0.0007108, "MEAN_MOTION_DDOT": 0}, "tle": {"line1": "1 66381U 25257B   25343.52945369  .00071080  00000+0  17650-2 0  9991", "line2": "2 66381  53.1589 279.7799 0001545  77.0925 283.0252 15.39713572  5877"}}, "geometry": {"type": "Point", "coordinates": [-83.81506514665656, -3.162724001632205]}}, {"type": "Feature", "properties": {"norad_id": 66382, "name": "STARLINK-35639", "group": "last-30-days", "lat": 15.861972793239032, "lon": -69.19157114657054, "alt_km": 445.07736894130176, "timestamp": "2025-12-09T18:55:16.020669+00:00", "meta": {"OBJECT_NAME": "STARLINK-35639", "OBJECT_ID": "2025-257C", "EPOCH": "2025-12-09T12:36:11.400480", "MEAN_MOTION": 15.39659565, "ECCENTRICITY": 0.00014158, "INCLINATION": 53.1613, "RA_OF_ASC_NODE": 279.7502, "ARG_OF_PERICENTER": 74.1332, "MEAN_ANOMALY": 285.9828, "EPHEMERIS_TYPE": 0, "CLASSIFICATION_TYPE": "U", "NORAD_CAT_ID": 66382, "ELEMENT_SET_NO": 999, "REV_AT_EPOCH": 587, "BSTAR": 0.0016376906, "MEAN_MOTION_DOT": 0.0006576, "MEAN_MOTION_DDOT": 0}, "tle": {"line1": "1 66382U 25257C   25343.52513195  .00065760  00000+0  16377-2 0  9993", "line2": "2 66382  53.1613 279.7502 0001415  74.1332 285.9828 15.39659565  5875"}}, "geometry": {"type": "Point", "coordinates": [-69.19157114657054, 15.861972793239032]}}, {"type": "Feature", "properties": {"norad_id": 66383, "name": "STARLINK-35690", "group": "last-30-days", "lat": 34.98101438071901, "lon": -49.90429223035103, "alt_km": 441.8757907965701, "timestamp": "2025-12-09T18:55:16.020682+00:00", "meta": {"OBJECT_NAME": "STARLINK-35690", "OBJECT_ID": "2025-257D", "EPOCH": "2025-12-09T03:08:39.440256", "MEAN_MOTION": 15.39621685, "ECCENTRICITY": 0.00012366, "INCLINATION": 53.161, "RA_OF_ASC_NODE": 281.5551, "ARG_OF_PERICENTER": 87.6681, "MEAN_ANOMALY": 272.4465, "EPHEMERIS_TYPE": 0, "CLASSIFICATION_TYPE": "U", "NORAD_CAT_ID": 66383, "ELEMENT_SET_NO": 999, "REV_AT_EPOCH": 581, "BSTAR": 0.0019585336, "MEAN_MOTION_DOT": 0.00078758, "MEAN_MOTION_DDOT": 0}, "tle": {"line1": "1 66383U 25257D   25343.13101204  .00078758  00000+0  19585-2 0  9990", "line2": "2 66383  53.1610 281.5551 0001236  87.6681 272.4465 15.39621685  5819"}}, "geometry": {"type": "Point", "coordinates": [-49.90429223035103, 34.98101438071901]}}, {"type": "Feature", "properties": {"norad_id": 66384, "name": "STARLINK-35662", "group": "last-30-days", "lat": 36.25379472703752, "lon": -48.19377086048653, "alt_km": 441.72834081681594, "timestamp": "2025-12-09T18:55:16.020718+00:00", "meta": {"OBJECT_NAME": "STARLINK-35662", "OBJECT_ID": "2025-257E", "EPOCH": "2025-12-09T03:08:10.703616", "MEAN_MOTION": 15.39635056, "ECCENTRICITY": 0.00010276, "INCLINATION": 53.1603, "RA_OF_ASC_NODE": 281.5542, "ARG_OF_PERICENTER": 91.0689, "MEAN_ANOMALY": 269.0434, "EPHEMERIS_TYPE": 0, "CLASSIFICATION_TYPE": "U", "NORAD_CAT_ID": 66384, "ELEMENT_SET_NO": 999, "REV_AT_EPOCH": 581, "BSTAR": 0.0020942978, "MEAN_MOTION_DOT": 0.00084344, "MEAN_MOTION_DDOT": 0}, "tle": {"line1": "1 66384U 25257E   25343.13067944  .00084344  00000+0  20943-2 0  9991", "line2": "2 66384  53.1603 281.5542 0001027  91.0689 269.0434 15.39635056  5812"}}, "geometry": {"type": "Point", "coordinates": [-48.19377086048653, 36.25379472703752]}}, {"type": "Feature", "properties": {"norad_id": 66385, "name": "STARLINK-35659", "group": "last-30-days", "lat": 17.302065011582506, "lon": -67.98714569512634, "alt_km": 445.07386433413103, "timestamp": "2025-12-09T18:55:16.020732+00:00", "meta": {"OBJECT_NAME": "STARLINK-35659", "OBJECT_ID": "2025-257F", "EPOCH": "2025-12-09T12:35:42.762336", "MEAN_MOTION": 15.39660087, "ECCENTRICITY": 0.00015573, "INCLINATION": 53.1604, "RA_OF_ASC_NODE": 279.7499, "ARG_OF_PERICENTER": 95.6073, "MEAN_ANOMALY": 264.511, "EPHEMERIS_TYPE": 0, "CLASSIFICATION_TYPE": "U", "NORAD_CAT_ID": 66385, "ELEMENT_SET_NO": 999, "REV_AT_EPOCH": 587, "BSTAR": 0.0024490739, "MEAN_MOTION_DOT": 0.00098973, "MEAN_MOTION_DDOT": 0}, "tle": {"line1": "1 66385U 25257F   25343.52480049  .00098973  00000+0  24491-2 0  9995", "line2": "2 66385  53.1604 279.7499 0001557  95.6073 264.5110 15.39660087  5878"}}, "geometry": {"type": "Point", "coordinates": [-67.98714569512634, 17.302065011582506]}}, {"type": "Feature", "properties": {"norad_id": 66386, "name": "STARLINK-35651", "group": "last-30-days", "lat": 49.38426025555827, "lon": -20.640386606403403, "alt_km": 439.66490719174544, "timestamp": "2025-12-09T18:55:16.020744+00:00", "meta": {"OBJECT_NAME": "STARLINK-35651", "OBJECT_ID": "2025-257G", "EPOCH": "2025-12-09T03:01:58.104480", "MEAN_MOTION": 15.39623506, "ECCENTRICITY": 0.00010349, "INCLINATION": 53.16, "RA_OF_ASC_NODE": 281.527, "ARG_OF_PERICENTER": 97.4058, "MEAN_ANOMALY": 262.7065, "EPHEMERIS_TYPE": 0, "CLASSIFICATION_TYPE": "U", "NORAD_CAT_ID": 66386, "ELEMENT_SET_NO": 999, "REV_AT_EPOCH": 581, "BSTAR": 0.0019748183, "MEAN_MOTION_DOT": 0.00079427, "MEAN_MOTION_DDOT": 0}, "tle": {"line1": "1 66386U 25257G   25343.12636695  .00079427  00000+0  19748-2 0  9994", "line2": "2 66386  53.1600 281.5270 0001034  97.4058 262.7065 15.39623506  5814"}}, "geometry": {"type": "Point", "coordinates": [-20.640386606403403, 49.38426025555827]}}, {"type": "Feature", "properties": {"norad_id": 66387, "name": "STARLINK-35661", "group": "last-30-days", "lat": 50.05156576254277, "lon": -18.071419861019177, "alt_km": 439.6172924492339, "timestamp": "2025-12-09T18:55:16.020756+00:00", "meta": {"OBJECT_NAME": "STARLINK-35661", "OBJECT_ID": "2025-257H", "EPOCH": "2025-12-09T03:01:29.608896", "MEAN_MOTION": 15.39623682, "ECCENTRICITY": 0.00010382, "INCLINATION": 53.1594, "RA_OF_ASC_NODE": 281.5253, "ARG_OF_PERICENTER": 87.1065, "MEAN_ANOMALY": 273.0059, "EPHEMERIS_TYPE": 0, "CLASSIFICATION_TYPE": "U", "NORAD_CAT_ID": 66387, "ELEMENT_SET_NO": 999, "REV_AT_EPOCH": 581, "BSTAR": 0.0012949213, "MEAN_MOTION_DOT": 0.00051755, "MEAN_MOTION_DDOT": 0}, "tle": {"line1": "1 66387U 25257H   25343.12603714  .00051755  00000+0  12949-2 0  9991", "line2": "2 66387  53.1594 281.5253 0001038  87.1065 273.0059 15.39623682  5819"}}, "geometry": {"type": "Point", "coordinates": [-18.071419861019177, 50.05156576254277]}}, {"type": "Feature", "properties": {"norad_id": 66388, "name": "STARLINK-35647", "group": "last-30-days", "lat": 52.58757464195941, "lon": 19.772038952046916, "alt_km": 440.43759157713157, "timestamp": "2025-12-09T18:55:16.020767+00:00", "meta": {"OBJECT_NAME": "STARLINK-35647", "OBJECT_ID": "2025-257J", "EPOCH": "2025-12-09T02:55:18.643584", "MEAN_MOTION": 15.39514665, "ECCENTRICITY": 0.00010774, "INCLINATION": 53.1581, "RA_OF_ASC_NODE": 281.4976, "ARG_OF_PERICENTER": 1.9018, "MEAN_ANOMALY": 358.1991, "EPHEMERIS_TYPE": 0, "CLASSIFICATION_TYPE": "U", "NORAD_CAT_ID": 66388, "ELEMENT_SET_NO": 999, "REV_AT_EPOCH": 581, "BSTAR": 0.00049045529, "MEAN_MOTION_DOT": 0.000192, "MEAN_MOTION_DDOT": 0}, "tle": {"line1": "1 66388U 25257J   25343.12174356  .00019200  00000+0  49046-3 0  9995", "line2": "2 66388  53.1581 281.4976 0001077   1.9018 358.1991 15.39514665  5812"}}, "geometry": {"type": "Point", "coordinates": [19.772038952046916, 52.58757464195941]}}, {"type": "Feature", "properties": {"norad_id": 66389, "name": "STARLINK-35694", "group": "last-30-days", "lat": 40.965186503109564, "lon": 57.68784971893435, "alt_km": 441.05124082554266, "timestamp": "2025-12-09T18:55:16.020779+00:00", "meta": {"OBJECT_NAME": "STARLINK-35694", "OBJECT_ID": "2025-257K", "EPOCH": "2025-12-09T02:48:07.134336", "MEAN_MOTION": 15.39618543, "ECCENTRICITY": 8.85e-05, "INCLINATION": 53.1601, "RA_OF_ASC_NODE": 281.4644, "ARG_OF_PERICENTER": 95.9598, "MEAN_ANOMALY": 264.1508, "EPHEMERIS_TYPE": 0, "CLASSIFICATION_TYPE": "U", "NORAD_CAT_ID": 66389, "ELEMENT_SET_NO": 999, "REV_AT_EPOCH": 581, "BSTAR": 0.0016910395, "MEAN_MOTION_DOT": 0.00067841, "MEAN_MOTION_DDOT": 0}, "tle": {"line1": "1 66389U 25257K   25343.11674924  .00067841  00000+0  16910-2 0  9998", "line2": "2 66389  53.1601 281.4644 0000885  95.9598 264.1508 15.39618543  5810"}}, "geometry": {"type": "Point", "coordinates": [57.68784971893435, 40.965186503109564]}}]}